{
  "version": 0.6,
  "generator": "Overpass API 0.7.61.5 4133829e",
  "osm3s": {
    "timestamp_osm_base": "2023-09-18T12:05:30Z",
    "copyright": "The data included in this document is from www.openstreetmap.org. The data is made available under ODbL."
  },
  "elements": [

{
  "type": "node",
  "id": 430856696,
  "lat": 41.7902440,
  "lon": 0.8183857,
  "tags": {
    "crossing": "traffic_signals",
    "highway": "traffic_signals"
  }
},
{
  "type": "node",
  "id": 1238435933,
  "lat": 41.7903654,
  "lon": 0.8180353
},
{
  "type": "node",
  "id": 1238435991,
  "lat": 41.7895054,
  "lon": 0.8203996
},
{
  "type": "node",
  "id": 2215019163,
  "lat": 41.7896467,
  "lon": 0.8204283
},
{
  "type": "node",
  "id": 2215019164,
  "lat": 41.7896535,
  "lon": 0.8199877
},
{
  "type": "node",
  "id": 2215019183,
  "lat": 41.7897194,
  "lon": 0.8200531,
  "tags": {
    "highway": "crossing"
  }
},
{
  "type": "node",
  "id": 2215019184,
  "lat": 41.7897422,
  "lon": 0.8203432
},
{
  "type": "node",
  "id": 2215019186,
  "lat": 41.7897593,
  "lon": 0.8201198
},
{
  "type": "node",
  "id": 2215019188,
  "lat": 41.7897678,
  "lon": 0.8202731
},
{
  "type": "node",
  "id": 2215019190,
  "lat": 41.7897737,
  "lon": 0.8201955
},
{
  "type": "node",
  "id": 2215019194,
  "lat": 41.7898550,
  "lon": 0.8202514
},
{
  "type": "node",
  "id": 2215019196,
  "lat": 41.7899479,
  "lon": 0.8203257
},
{
  "type": "node",
  "id": 2215019200,
  "lat": 41.7902869,
  "lon": 0.8204459
},
{
  "type": "node",
  "id": 2215046951,
  "lat": 41.7882473,
  "lon": 0.8184023
},
{
  "type": "node",
  "id": 2215046952,
  "lat": 41.7888591,
  "lon": 0.8187638
},
{
  "type": "node",
  "id": 2215046974,
  "lat": 41.7898654,
  "lon": 0.8194035
},
{
  "type": "node",
  "id": 4623423309,
  "lat": 41.7884211,
  "lon": 0.8173283
},
{
  "type": "node",
  "id": 5133353670,
  "lat": 41.7896916,
  "lon": 0.8200165
},
{
  "type": "node",
  "id": 5133353672,
  "lat": 41.7897001,
  "lon": 0.8203972
},
{
  "type": "node",
  "id": 6845757796,
  "lat": 41.7889938,
  "lon": 0.8188493
},
{
  "type": "node",
  "id": 6845757797,
  "lat": 41.7885559,
  "lon": 0.8201536,
  "tags": {
    "highway": "turning_circle"
  }
},
{
  "type": "node",
  "id": 6888567898,
  "lat": 41.7898010,
  "lon": 0.8193626,
  "tags": {
    "crossing_ref": "zebra",
    "highway": "crossing"
  }
},
{
  "type": "node",
  "id": 6888567899,
  "lat": 41.7883198,
  "lon": 0.8179325,
  "tags": {
    "crossing_ref": "zebra",
    "highway": "crossing"
  }
},
{
  "type": "node",
  "id": 10275291449,
  "lat": 41.7884720,
  "lon": 0.8173422
},
{
  "type": "node",
  "id": 10697924338,
  "lat": 41.7897363,
  "lon": 0.8197595
},
{
  "type": "node",
  "id": 10697924339,
  "lat": 41.7898666,
  "lon": 0.8198250
},
{
  "type": "node",
  "id": 10697924340,
  "lat": 41.7898425,
  "lon": 0.8199147
},
{
  "type": "node",
  "id": 10697924341,
  "lat": 41.7898666,
  "lon": 0.8200044
},
{
  "type": "node",
  "id": 10697924342,
  "lat": 41.7899465,
  "lon": 0.8200620
},
{
  "type": "node",
  "id": 10697924343,
  "lat": 41.7901266,
  "lon": 0.8195690
},
{
  "type": "node",
  "id": 10697924344,
  "lat": 41.7899840,
  "lon": 0.8194852
},
{
  "type": "node",
  "id": 10697924345,
  "lat": 41.7898962,
  "lon": 0.8200537
},
{
  "type": "node",
  "id": 10697924346,
  "lat": 41.7898513,
  "lon": 0.8199758
},
{
  "type": "node",
  "id": 10697924348,
  "lat": 41.7901574,
  "lon": 0.8202286
},
{
  "type": "node",
  "id": 10697924349,
  "lat": 41.7900362,
  "lon": 0.8201693
},
{
  "type": "node",
  "id": 10697924350,
  "lat": 41.7899774,
  "lon": 0.8201231
},
{
  "type": "node",
  "id": 10697924351,
  "lat": 41.7900945,
  "lon": 0.8202013
},
{
  "type": "node",
  "id": 10702011716,
  "lat": 41.7900158,
  "lon": 0.8201568
},
{
  "type": "node",
  "id": 10702011717,
  "lat": 41.7899990,
  "lon": 0.8201441
},
{
  "type": "node",
  "id": 10702011718,
  "lat": 41.7899412,
  "lon": 0.8200765
},
{
  "type": "way",
  "id": 211496006,
  "nodes": [
    2215019163,
    5133353672,
    2215019184,
    2215019188,
    2215019190,
    2215019186
  ],
  "tags": {
    "highway": "residential",
    "name": "Carrer de Campllong",
    "name:ca": "Carrer de Campllong",
    "oneway": "yes",
    "surface": "asphalt"
  }
},
{
  "type": "way",
  "id": 211496019,
  "nodes": [
    2215019200,
    2215019196,
    2215019194,
    2215019186
  ],
  "tags": {
    "highway": "residential",
    "name": "Carrer de Campllong",
    "name:ca": "Carrer de Campllong",
    "oneway": "yes",
    "surface": "asphalt"
  }
},
{
  "type": "way",
  "id": 211497333,
  "nodes": [
    10275291449,
    4623423309,
    6888567899,
    2215046951,
    2215046952,
    6845757796,
    6888567898,
    2215046974
  ],
  "tags": {
    "highway": "residential",
    "name": "Carrer de Josep Maria Porcioles",
    "name:ca": "Carrer de Josep Maria Porcioles",
    "surface": "asphalt"
  }
},
{
  "type": "way",
  "id": 730907421,
  "nodes": [
    6845757796,
    6845757797
  ],
  "tags": {
    "highway": "residential",
    "name": "Carrer de Gregori Gallego",
    "name:ca": "Carrer de Gregori Gallego",
    "surface": "asphalt"
  }
},
{
  "type": "way",
  "id": 1149981573,
  "nodes": [
    10697924339,
    10697924340,
    10697924346,
    10697924341,
    10697924345,
    10702011718,
    10697924342,
    10697924343
  ],
  "tags": {
    "highway": "service",
    "oneway": "yes",
    "service": "parking_aisle",
    "surface": "asphalt"
  }
},
{
  "type": "way",
  "id": 1149981574,
  "nodes": [
    10697924342,
    10697924350,
    10702011717,
    10702011716,
    10697924349,
    10697924351,
    10697924348
  ],
  "tags": {
    "highway": "service",
    "service": "parking_aisle",
    "surface": "asphalt"
  }
},
{
  "type": "way",
  "id": 1149981575,
  "nodes": [
    10697924338,
    10697924339
  ],
  "tags": {
    "highway": "service",
    "service": "parking_aisle",
    "surface": "asphalt"
  }
},
{
  "type": "way",
  "id": 1167434692,
  "nodes": [
    2215019164,
    1238435991
  ],
  "tags": {
    "cycleway:both": "no",
    "highway": "tertiary",
    "lanes": "2",
    "lit": "yes",
    "maxspeed": "50",
    "name": "Carrer d'Urgell",
    "name:ca": "Carrer d'Urgell",
    "ref": "C-148a",
    "sidewalk": "both",
    "surface": "asphalt"
  }
},
{
  "type": "way",
  "id": 1167434693,
  "nodes": [
    2215019186,
    2215019183,
    5133353670,
    2215019164
  ],
  "tags": {
    "highway": "residential",
    "name": "Carrer de Campllong",
    "name:ca": "Carrer de Campllong",
    "oneway": "yes",
    "surface": "asphalt"
  }
},
{
  "type": "way",
  "id": 1167434694,
  "nodes": [
    10697924338,
    2215019164
  ],
  "tags": {
    "cycleway:both": "no",
    "highway": "tertiary",
    "lanes": "2",
    "lit": "yes",
    "maxspeed": "50",
    "name": "Carrer d'Urgell",
    "name:ca": "Carrer d'Urgell",
    "ref": "C-148a",
    "sidewalk": "both",
    "surface": "asphalt"
  }
},
{
  "type": "way",
  "id": 1167434695,
  "nodes": [
    10697924343,
    10697924344,
    10697924339
  ],
  "tags": {
    "highway": "service",
    "oneway": "yes",
    "service": "parking_aisle",
    "surface": "asphalt"
  }
},
{
  "type": "way",
  "id": 1167434696,
  "nodes": [
    2215046974,
    10697924338
  ],
  "tags": {
    "cycleway:both": "no",
    "highway": "tertiary",
    "lanes": "2",
    "lit": "yes",
    "maxspeed": "50",
    "name": "Carrer d'Urgell",
    "name:ca": "Carrer d'Urgell",
    "ref": "C-148a",
    "sidewalk": "both",
    "surface": "asphalt"
  }
},
{
  "type": "way",
  "id": 1167434700,
  "nodes": [
    1238435933,
    430856696,
    2215046974
  ],
  "tags": {
    "cycleway:both": "no",
    "highway": "tertiary",
    "lanes": "2",
    "lit": "yes",
    "maxspeed": "50",
    "name": "Carrer d'Urgell",
    "name:ca": "Carrer d'Urgell",
    "ref": "C-148a",
    "sidewalk": "both",
    "surface": "asphalt"
  }
}

  ]
}
